ONEWEB-0668             
1 56711U 23068B   25103.31383509  .00000057  00000+0  11664-3 0  9994
2 56711  87.9021 314.4468 0001577 105.3530 254.7775 13.16592451 95914
ONEWEB-0677             
1 56713U 23068D   25103.26694020  .00000119  00000+0  26106-3 0  9999
2 56713  87.9316   0.0342 0002092  84.5587 275.5785 13.20772107 93750
ONEWEB-0678             
1 56714U 23068E   25103.36002101  .00000093  00000+0  21352-3 0  9993
2 56714  87.9110 344.8294 0001814  68.9091 291.2233 13.15549987 93479
ONEWEB-0679             
1 56715U 23068F   25102.88318843  .00000122  00000+0  28622-3 0  9993
2 56715  87.9031 314.5549 0002156  99.6436 260.4938 13.16594452 95103
ONEWEB-0680             
1 56716U 23068G   25103.06598499  .00000084  00000+0  17308-3 0  9998
2 56716  87.9265 329.7555 0001729 106.8338 253.2986 13.21823948 94973
ONEWEB-0681             
1 56717U 23068H   25103.07623168  .00000066  00000+0  12761-3 0  9990
2 56717  87.9287 329.7658 0002768  85.7704 274.3746 13.21826589 94969
ONEWEB-0682             
1 56718U 23068J   25103.08194002 -.00000066  00000+0 -20871-3 0  9995
2 56718  87.9107 344.9172 0001808  97.9318 262.2018 13.15551094 93608
